ONEWEB-0168             
1 48068U 21025AC  23244.50444301  .00001623  00000+0  44099-2 0  9991
2 48068  87.9004 163.1064 0001994  73.0398 287.0949 13.13463964119707
ONEWEB-0173             
1 48069U 21025AD  23244.49811772 -.00002968  00000+0 -81691-2 0  9994
2 48069  87.8950 163.1264 0001783  73.1360 286.9964 13.13445566119944
ONEWEB-0171             
1 48070U 21025AE  23244.53196319  .00000351  00000+0  92626-3 0  9997
2 48070  87.9085 163.0835 0002191  77.4592 282.6782 13.13472113119766
ONEWEB-0172             
1 48071U 21025AF  23244.51395349 -.00001884  00000+0 -51944-2 0  9991
2 48071  87.9047 163.0565 0002106  77.9959 282.1406 13.13476471120652
ONEWEB-0174             
1 48072U 21025AG  23244.49598363 -.00000258  00000+0 -74246-3 0  9995
2 48072  87.9026 163.0799 0001627  74.4141 285.7167 13.13464203119977
ONEWEB-0175             
1 48073U 21025AH  23244.52350231  .00001056  00000+0  28557-2 0  9998
2 48073  87.9075 163.0643 0002773  84.6027 275.5418 13.13465613119634
ONEWEB-0177             
1 48074U 21025AJ  23244.53619452  .00000287  00000+0  75188-3 0  9991
2 48074  87.9084 163.0635 0002548  62.3283 297.8105 13.13468468119825
ONEWEB-0178             
1 48075U 21025AK  23244.47799747  .00000067  00000+0  14916-3 0  9999
2 48075  87.9071 163.0823 0002186  68.2228 291.9133 13.13469534119868
